GSAT0222 (PRN E33)      
1 43565U 18060B   22350.52919927 -.00000063  00000+0  00000+0 0  9992
2 43565  57.2319  16.2634 0005063 279.4917  80.5079  1.70475988 27419
GSAT0219 (PRN E36)      
1 43566U 18060C   22350.74973729 -.00000062  00000+0  00000+0 0  9996
2 43566  57.2324  16.2595 0004666 278.5882  81.4160  1.70476039 27397
GSAT0220 (PRN E13)      
1 43567U 18060D   22352.14316629 -.00000059  00000+0  00000+0 0  9999
2 43567  57.2326  16.2230 0004986 275.3211  84.6809  1.70475846 27404
BEIDOU-3 M9 (C23)       
1 43581U 18062A   22351.99685438  .00000070  00000+0  00000+0 0  9998
2 43581  54.2280 225.8067 0003102 312.8091 249.7095  1.86231949 29846
BEIDOU-3 M10 (C24)      
1 43582U 18062B   22352.30240844  .00000074  00000+0  00000+0 0  9997
2 43582  54.2270 225.7852 0006667  17.5191 121.8346  1.86231636 29859
BEIDOU-3 M11 (C25)      
1 43602U 18067A   22352.31112302  .00000078  00000+0  00000+0 0  9997
2 43602  54.3116 224.4167 0007953  16.1047 170.0661  1.86231515 29347
BEIDOU-3 M12 (C26)      
1 43603U 18067B   22352.42558017  .00000079  00000+0  00000+0 0  9998
2 43603  54.3094 224.3790 0004876  10.7155 162.5346  1.86231479 29362
BEIDOU-3 M13 (C32)      
1 43622U 18072A   22352.07305693  .00000013  00000+0  00000+0 0  9994
2 43622  55.5939 105.1896 0004724 276.0496  49.5956  1.86231371 28860
BEIDOU-3 M14 (C33)      
1 43623U 18072B   22350.91514258  .00000019  00000+0  00000+0 0  9991
2 43623  55.5949 105.2210 0002210 313.7950  45.7639  1.86231362 28849
BEIDOU-3 M15 (C34)      
1 43647U 18078A   22352.15713233 -.00000059  00000+0  10000-3 0  9995
2 43647  55.0495 344.2890 0006421 352.5114  15.6099  1.86233074 28383
BEIDOU-3 M16 (C35)      
1 43648U 18078B   22352.28244213 -.00000059  00000+0  00000+0 0  9992
2 43648  55.0456 344.2906 0003891 354.5911   4.9575  1.86232185 28397
BEIDOU-3 G1 (C59)       
1 43683U 18085A   22352.48218440 -.00000250  00000+0  00000+0 0  9997
2 43683   1.0195 149.4061 0003544 184.1566  67.2055  1.00272288 15252
COSMOS 2529 (757)       
1 43687U 18086A   22351.64239905  .00000045  00000+0  00000+0 0  9999
2 43687  64.3380 235.9034 0008756 270.7606 283.6317  2.13102105 32060
BEIDOU-3 M17 (C36)      
1 43706U 18093A   22351.89633756  .00000069  00000+0  00000+0 0  9994
2 43706  54.3094 225.7087 0007661 290.2977  69.7074  1.86231988 27754
BEIDOU-3 M18 (C37)      
1 43707U 18093B   22351.58458703  .00000065  00000+0  00000+0 0  9994
2 43707  54.3104 225.7101 0007555 320.6851 281.7012  1.86232281 27738
GPS BIII-1  (PRN 04)    
1 43873U 18109A   22352.14563444  .00000095  00000+0  00000+0 0  9991
2 43873  55.1276 142.6430 0022409 187.8287 167.9260  2.00557069 29456
BEIDOU-3 IGSO-1 (C38)   
1 44204U 19023A   22352.57618779 -.00000224  00000+0  00000+0 0  9990
2 44204  56.8269  51.0056 0024015 195.9055 164.5495  1.00254419 13560
BEIDOU-2 G8             
1 44231U 19027A   22352.61238420 -.00000221  00000+0  00000+0 0  9997
2 44231   1.3077  80.2995 0006152 135.9326 235.9724  1.00269380 13274
COSMOS 2534 (758)       
1 44299U 19030A   22352.31735713  .00000053  00000+0  00000+0 0  9991
2 44299  64.4108 235.7821 0011604 291.7781 194.8127  2.13101855 27724
BEIDOU-3 IGSO-2 (C39)   
1 44337U 19035A   22352.40565356 -.00000023  00000+0  00000+0 0  9991
2 44337  55.1343 170.0891 0025921 188.3490 350.4211  1.00247623 12893
GPS BIII-2  (PRN 18)    
1 44506U 19056A   22352.59178038 -.00000060  00000+0  00000+0 0  9990
2 44506  55.7519  21.7355 0029831 186.0103  32.4687  2.00559977 24468
BEIDOU-3 M23 (C45)      
1 44542U 19061A   22351.83285845  .00000069  00000+0  00000+0 0  9995
2 44542  54.5362 225.8887 0008932 357.4512   2.6314  1.86231527 22000
BEIDOU-3 M24 (C46)      
1 44543U 19061B   22352.23724601  .00000074  00000+0  00000+0 0  9995
2 44543  54.5337 225.8449 0005854 353.3351 189.4045  1.86231939 22005
BEIDOU-3 IGSO-3         
1 44709U 19073A   22352.26200572 -.00000201  00000+0  10000-3 0  9999
2 44709  56.9696 294.4714 0026044 182.9148 180.9649  1.00253155 11648
BEIDOU-3 M21            
1 44793U 19078A   22352.40351785 -.00000059  00000+0  10000-3 0  9997
2 44793  54.8984 344.2803 0005835 357.8958 129.0090  1.86232220 20871
BEIDOU-3 M22            
1 44794U 19078B   22351.26773272 -.00000060  00000+0  00000+0 0  9997
2 44794  54.8716 344.3066 0004129 347.0175  10.3779  1.86232673 20849
COSMOS 2544 (759)       
1 44850U 19088A   22351.73321377  .00000047  00000+0  16595+1 0  9999
2 44850  65.0004 116.5408 0011342 249.8636 134.0278  2.13102239 23487
BEIDOU-3 M19            
1 44864U 19090A   22351.99980692  .00000014  00000+0  00000+0 0  9993
2 44864  55.5280 105.3929 0015702 267.0121  55.4845  1.86231745 20444
BEIDOU-3 M20            
1 44865U 19090B   22351.86131041  .00000015  00000+0  00000+0 0  9997
2 44865  55.5295 105.4298 0013417 281.6975  37.7792  1.86231688 20418
BEIDOU-3 G2             
1 45344U 20017A   22352.44702203 -.00000116  00000+0  00000+0 0  9993
2 45344   1.9940   1.8263 0001607 215.1443 111.0435  1.00270709 10450
COSMOS 2545 (760)       
1 45358U 20018A   22352.41406961 -.00000028  00000+0  00000+0 0  9990
2 45358  64.8990 356.9317 0011589 249.9805 145.4938  2.13102673 21459
BEIDOU-3 G3             
1 45807U 20040A   22352.53729997 -.00000327  00000+0  00000+0 0  9996
2 45807   1.0410 311.1006 0008425 339.7581 100.2054  1.00276647  9272
GPS BIII-3  (PRN 23)    
1 45854U 20041A   22351.36760218 -.00000035  00000+0  00000+0 0  9996
2 45854  55.6659  79.0549 0029315 183.1129 171.8085  2.00567616 18409
GALAXY 30 (WAAS/PRN 135)
1 46114U 20056C   22352.50109919  .00000064  00000+0  00000+0 0  9995
2 46114   0.0017 358.7906 0001973 270.0364 233.6813  1.00272633  8600
GPS BIII-4  (PRN 14)    
1 46826U 20078A   22352.12259740 -.00000007  00000+0  00000+0 0  9993
2 46826  54.4531 262.6405 0024891 190.0218 326.4475  2.00564995 15894
GPS BIII-5  (PRN 11)    
1 48859U 21054A   22352.17402822 -.00000062  00000+0  00000+0 0  9993
2 48859  55.2621  23.6621 0009154 214.8076 163.4264  2.00563024 11149
